start=new Date('2023-06-19T00:00:00.000Z').valueOf();
sats=[{"SEMIMAJOR_AXIS":"6917.882","MEAN_ELEMENT_THEORY":"SGP4","ECCENTRICITY":"0.00011010","LAUNCH_DATE":"2022-05-06","PERIAPSIS":"538.985","ELEMENT_SET_NO":"999","MEAN_MOTION_DDOT":"0.0000000000000","OBJECT_NAME":"STARLINK-3866","APOAPSIS":"540.508","TIME_SYSTEM":"UTC","NORAD_CAT_ID":"52500","EPOCH":"2023-06-18T07:58:46.894080","GP_ID":"234222796","SITE":"AFETR","PERIOD":"95.438","TLE_LINE1":"1 52500U 22049BB  23169.33248720 -.00000077  00000-0  13269-4 0  9999","BSTAR":"0.00001326900000","DECAY_DATE":null,"CLASSIFICATION_TYPE":"U","REV_AT_EPOCH":"6242","MEAN_MOTION":"15.08839583","MEAN_MOTION_DOT":"-0.00000077","OBJECT_ID":"2022-049BB","EPHEMERIS_TYPE":"0","RCS_SIZE":"LARGE","FILE":"3936714","REF_FRAME":"TEME","CENTER_NAME":"EARTH","RA_OF_ASC_NODE":"187.4523","OBJECT_TYPE":"PAYLOAD","MEAN_ANOMALY":"267.8004","COUNTRY_CODE":"US","INCLINATION":"53.2140","ARG_OF_PERICENTER":"92.3115","TLE_LINE2":"2 52500  53.2140 187.4523 0001101  92.3115 267.8004 15.08839583 62424"},{"ECCENTRICITY":"0.00008940","LAUNCH_DATE":"2022-05-06","PERIAPSIS":"539.125","SEMIMAJOR_AXIS":"6917.879","MEAN_ELEMENT_THEORY":"SGP4","APOAPSIS":"540.362","TIME_SYSTEM":"UTC","ELEMENT_SET_NO":"999","MEAN_MOTION_DDOT":"0.0000000000000","OBJECT_NAME":"STARLINK-3907","PERIOD":"95.438","TLE_LINE1":"1 52501U 22049BC  23169.79890398 -.00000128  00000-0  10062-4 0  9999","BSTAR":"0.00001006200000","DECAY_DATE":null,"CLASSIFICATION_TYPE":"U","REV_AT_EPOCH":"6220","NORAD_CAT_ID":"52501","EPOCH":"2023-06-18T19:10:25.303872","GP_ID":"234247734","SITE":"AFETR","REF_FRAME":"TEME","CENTER_NAME":"EARTH","RA_OF_ASC_NODE":"195.1564","OBJECT_TYPE":"PAYLOAD","MEAN_ANOMALY":"276.0248","COUNTRY_CODE":"US","INCLINATION":"53.2162","TLE_LINE2":"2 52501  53.2162 195.1564 0000894  84.0846 276.0248 15.08840588 62202","ARG_OF_PERICENTER":"84.0846","MEAN_MOTION":"15.08840588","MEAN_MOTION_DOT":"-0.00000128","OBJECT_ID":"2022-049BC","EPHEMERIS_TYPE":"0","RCS_SIZE":"LARGE","FILE":"3936745"},{"GP_ID":"234211526","EPOCH":"2023-06-18T07:53:29.389632","NORAD_CAT_ID":"52502","SITE":"AFETR","PERIOD":"95.438","BSTAR":"0.00004956600000","TLE_LINE1":"1 52502U 22049BD  23169.32881238  .00000501  00000-0  49566-4 0  9997","DECAY_DATE":null,"CLASSIFICATION_TYPE":"U","REV_AT_EPOCH":"6226","MEAN_MOTION":"15.08839193","MEAN_MOTION_DOT":"0.00000501","OBJECT_ID":"2022-049BD","EPHEMERIS_TYPE":"0","FILE":"3936420","RCS_SIZE":"LARGE","CENTER_NAME":"EARTH","REF_FRAME":"TEME","COUNTRY_CODE":"US","OBJECT_TYPE":"PAYLOAD","RA_OF_ASC_NODE":"187.4968","MEAN_ANOMALY":"273.0920","INCLINATION":"53.2135","TLE_LINE2":"2 52502  53.2135 187.4968 0000948  87.0181 273.0920 15.08839193 62260","ARG_OF_PERICENTER":"87.0181","SEMIMAJOR_AXIS":"6917.883","MEAN_ELEMENT_THEORY":"SGP4","PERIAPSIS":"539.092","LAUNCH_DATE":"2022-05-06","ECCENTRICITY":"0.00009480","MEAN_MOTION_DDOT":"0.0000000000000","ELEMENT_SET_NO":"999","OBJECT_NAME":"STARLINK-3912","TIME_SYSTEM":"UTC","APOAPSIS":"540.404"},{"RCS_SIZE":"LARGE","FILE":"3936420","OBJECT_ID":"2022-049BE","EPHEMERIS_TYPE":"0","MEAN_MOTION_DOT":"-0.00000907","MEAN_MOTION":"15.08835550","TLE_LINE2":"2 52503  53.2153 187.4956 0001036  85.3248 274.7863 15.08835550 62269","ARG_OF_PERICENTER":"85.3248","INCLINATION":"53.2153","MEAN_ANOMALY":"274.7863","OBJECT_TYPE":"PAYLOAD","RA_OF_ASC_NODE":"187.4956","COUNTRY_CODE":"US","REF_FRAME":"TEME","CENTER_NAME":"EARTH","SITE":"AFETR","NORAD_CAT_ID":"52503","EPOCH":"2023-06-18T08:00:10.359072","GP_ID":"234212777","REV_AT_EPOCH":"6226","CLASSIFICATION_TYPE":"U","DECAY_DATE":null,"TLE_LINE1":"1 52503U 22049BE  23169.33345323 -.00000907  00000-0 -38933-4 0  9997","BSTAR":"-0.00003893300000","PERIOD":"95.438","OBJECT_NAME":"STARLINK-3861","ELEMENT_SET_NO":"999","MEAN_MOTION_DDOT":"0.0000000000000","APOAPSIS":"540.476","TIME_SYSTEM":"UTC","MEAN_ELEMENT_THEORY":"SGP4","SEMIMAJOR_AXIS":"6917.894","ECCENTRICITY":"0.00010360","LAUNCH_DATE":"2022-05-06","PERIAPSIS":"539.042"},{"MEAN_MOTION_DOT":"0.00011160","MEAN_MOTION":"15.08844109","FILE":"3936745","RCS_SIZE":"LARGE","EPHEMERIS_TYPE":"0","OBJECT_ID":"2022-051A","COUNTRY_CODE":"US","RA_OF_ASC_NODE":"276.4125","OBJECT_TYPE":"PAYLOAD","MEAN_ANOMALY":"259.6344","CENTER_NAME":"EARTH","REF_FRAME":"TEME","TLE_LINE2":"2 52533  53.2184 276.4125 0000943 100.4755 259.6344 15.08844109 61211","ARG_OF_PERICENTER":"100.4755","INCLINATION":"53.2184","GP_ID":"234246243","EPOCH":"2023-06-18T14:19:02.023680","NORAD_CAT_ID":"52533","SITE":"AFWTR","BSTAR":"0.00071809000000","TLE_LINE1":"1 52533U 22051A   23169.59655120  .00011160  00000-0  71809-3 0  9999","PERIOD":"95.437","REV_AT_EPOCH":"6121","CLASSIFICATION_TYPE":"U","DECAY_DATE":null,"OBJECT_NAME":"STARLINK-3951","ELEMENT_SET_NO":"999","MEAN_MOTION_DDOT":"0.0000000000000","TIME_SYSTEM":"UTC","APOAPSIS":"540.385","MEAN_ELEMENT_THEORY":"SGP4","SEMIMAJOR_AXIS":"6917.868","LAUNCH_DATE":"2022-05-13","PERIAPSIS":"539.080","ECCENTRICITY":"0.00009430"},{"TLE_LINE1":"1 52534U 22051B   23169.72164577  .00001405  00000-0  10634-3 0  9996","BSTAR":"0.00010634000000","PERIOD":"95.437","REV_AT_EPOCH":"6197","DECAY_DATE":null,"CLASSIFICATION_TYPE":"U","NORAD_CAT_ID":"52534","GP_ID":"234246992","EPOCH":"2023-06-18T17:19:10.194528","SITE":"AFWTR","OBJECT_TYPE":"PAYLOAD","RA_OF_ASC_NODE":"275.7070","MEAN_ANOMALY":"267.7678","COUNTRY_CODE":"US","REF_FRAME":"TEME","CENTER_NAME":"EARTH","TLE_LINE2":"2 52534  53.2167 275.7070 0000900  92.3417 267.7678 15.08849132 61975","ARG_OF_PERICENTER":"92.3417","INCLINATION":"53.2167","MEAN_MOTION_DOT":"0.00001405","MEAN_MOTION":"15.08849132","RCS_SIZE":"LARGE","FILE":"3936745","OBJECT_ID":"2022-051B","EPHEMERIS_TYPE":"0","ECCENTRICITY":"0.00009000","LAUNCH_DATE":"2022-05-13","PERIAPSIS":"539.095","MEAN_ELEMENT_THEORY":"SGP4","SEMIMAJOR_AXIS":"6917.852","APOAPSIS":"540.340","TIME_SYSTEM":"UTC","OBJECT_NAME":"STARLINK-3952","MEAN_MOTION_DDOT":"0.0000000000000","ELEMENT_SET_NO":"999"},{"SEMIMAJOR_AXIS":"6917.948","MEAN_ELEMENT_THEORY":"SGP4","ECCENTRICITY":"0.00010690","LAUNCH_DATE":"2022-05-13","PERIAPSIS":"539.074","MEAN_MOTION_DDOT":"0.0000000000000","ELEMENT_SET_NO":"999","OBJECT_NAME":"STARLINK-3958","APOAPSIS":"540.553","TIME_SYSTEM":"UTC","SITE":"AFWTR","NORAD_CAT_ID":"52535","GP_ID":"234247735","EPOCH":"2023-06-18T10:52:19.774560","CLASSIFICATION_TYPE":"U","DECAY_DATE":null,"REV_AT_EPOCH":"6119","PERIOD":"95.439","TLE_LINE1":"1 52535U 22051C   23169.45300665 -.00008782  00000-0 -53470-3 0  9999","BSTAR":"-0.00053470000000","OBJECT_ID":"2022-051C","EPHEMERIS_TYPE":"0","RCS_SIZE":"LARGE","FILE":"3936745","MEAN_MOTION":"15.08817785","MEAN_MOTION_DOT":"-0.00008782","INCLINATION":"53.2177","TLE_LINE2":"2 52535  53.2177 276.9104 0001069  71.6769 288.4339 15.08817785 61192","ARG_OF_PERICENTER":"71.6769","REF_FRAME":"TEME","CENTER_NAME":"EARTH","MEAN_ANOMALY":"288.4339","OBJECT_TYPE":"PAYLOAD","RA_OF_ASC_NODE":"276.9104","COUNTRY_CODE":"US"},{"PERIOD":"95.437","BSTAR":"0.00082345000000","TLE_LINE1":"1 52536U 22051D   23169.58181194  .00012845  00000-0  82345-3 0  9994","CLASSIFICATION_TYPE":"U","DECAY_DATE":null,"REV_AT_EPOCH":"6121","EPOCH":"2023-06-18T13:57:48.551616","GP_ID":"234245993","NORAD_CAT_ID":"52536","SITE":"AFWTR","CENTER_NAME":"EARTH","REF_FRAME":"TEME","COUNTRY_CODE":"US","RA_OF_ASC_NODE":"276.3311","OBJECT_TYPE":"PAYLOAD","MEAN_ANOMALY":"257.0374","INCLINATION":"53.2160","TLE_LINE2":"2 52536  53.2160 276.3311 0001066 103.0737 257.0374 15.08850465 61217","ARG_OF_PERICENTER":"103.0737","MEAN_MOTION":"15.08850465","MEAN_MOTION_DOT":"0.00012845","OBJECT_ID":"2022-051D","EPHEMERIS_TYPE":"0","FILE":"3936745","RCS_SIZE":"LARGE","LAUNCH_DATE":"2022-05-13","PERIAPSIS":"538.976","ECCENTRICITY":"0.00010660","SEMIMAJOR_AXIS":"6917.848","MEAN_ELEMENT_THEORY":"SGP4","TIME_SYSTEM":"UTC","APOAPSIS":"540.451","ELEMENT_SET_NO":"999","MEAN_MOTION_DDOT":"0.0000000000000","OBJECT_NAME":"STARLINK-3964"},{"ECCENTRICITY":"0.00012930","PERIAPSIS":"538.838","LAUNCH_DATE":"2022-05-13","SEMIMAJOR_AXIS":"6917.867","MEAN_ELEMENT_THEORY":"SGP4","APOAPSIS":"540.627","TIME_SYSTEM":"UTC","ELEMENT_SET_NO":"999","MEAN_MOTION_DDOT":"0.0000000000000","OBJECT_NAME":"STARLINK-3897","CLASSIFICATION_TYPE":"U","DECAY_DATE":null,"REV_AT_EPOCH":"6121","PERIOD":"95.437","TLE_LINE1":"1 52537U 22051E   23169.57908987  .00004027  00000-0  27092-3 0  9992","BSTAR":"0.00027092000000","SITE":"AFWTR","NORAD_CAT_ID":"52537","EPOCH":"2023-06-18T13:53:53.364768","GP_ID":"234246743","INCLINATION":"53.2171","TLE_LINE2":"2 52537  53.2171 276.3564 0001293  71.3495 288.7638 15.08844331 61219","ARG_OF_PERICENTER":"71.3495","REF_FRAME":"TEME","CENTER_NAME":"EARTH","OBJECT_TYPE":"PAYLOAD","RA_OF_ASC_NODE":"276.3564","MEAN_ANOMALY":"288.7638","COUNTRY_CODE":"US","OBJECT_ID":"2022-051E","EPHEMERIS_TYPE":"0","RCS_SIZE":"LARGE","FILE":"3936745","MEAN_MOTION":"15.08844331","MEAN_MOTION_DOT":"0.00004027"},{"ELEMENT_SET_NO":"999","MEAN_MOTION_DDOT":"0.0000000000000","OBJECT_NAME":"STARLINK-3933","APOAPSIS":"540.337","TIME_SYSTEM":"UTC","SEMIMAJOR_AXIS":"6917.831","MEAN_ELEMENT_THEORY":"SGP4","ECCENTRICITY":"0.00009260","LAUNCH_DATE":"2022-05-13","PERIAPSIS":"539.056","MEAN_MOTION":"15.08856017","MEAN_MOTION_DOT":"0.00021498","OBJECT_ID":"2022-051F","EPHEMERIS_TYPE":"0","RCS_SIZE":"LARGE","FILE":"3936745","REF_FRAME":"TEME","CENTER_NAME":"EARTH","OBJECT_TYPE":"PAYLOAD","MEAN_ANOMALY":"263.0876","RA_OF_ASC_NODE":"276.6811","COUNTRY_CODE":"US","INCLINATION":"53.2170","TLE_LINE2":"2 52538  53.2170 276.6811 0000926  97.0222 263.0876 15.08856017 61205","ARG_OF_PERICENTER":"97.0222","NORAD_CAT_ID":"52538","GP_ID":"234247492","EPOCH":"2023-06-18T12:06:31.723776","SITE":"AFWTR","PERIOD":"95.437","TLE_LINE1":"1 52538U 22051F   23169.50453384  .00021498  00000-0  13641-2 0  9997","BSTAR":"0.00136410000000","DECAY_DATE":null,"CLASSIFICATION_TYPE":"U","REV_AT_EPOCH":"6120"}];
